#aV2016  6  2  0  0  0.00000000     288 DD+AD WGS84 FIT  NGA
## 1899 345600.00000000   300.00000000 57541 0.0000000000000
+   31     1  2  3  5  6  7  8  9 10 11 12 13 14 15 16 17 18
+         19 20 21 22 23 24 25 26 27 28 29 30 31 32  0  0  0
+          0  0  0  0  0  0  0  0  0  0  0  0  0  0  0  0  0
+          0  0  0  0  0  0  0  0  0  0  0  0  0  0  0  0  0
+          0  0  0  0  0  0  0  0  0  0  0  0  0  0  0  0  0
++         2  2  2  2  2  2  2  2  2  2  2  2  2  2  2  2  2
++         2  2  2  2  2  2  2  2  2  2  2  2  2  2  0  0  0
++         0  0  0  0  0  0  0  0  0  0  0  0  0  0  0  0  0
++         0  0  0  0  0  0  0  0  0  0  0  0  0  0  0  0  0
++         0  0  0  0  0  0  0  0  0  0  0  0  0  0  0  0  0
%c cc cc ccc ccc cccc cccc cccc cccc ccccc ccccc ccccc ccccc
%c cc cc ccc ccc cccc cccc cccc cccc ccccc ccccc ccccc ccccc
%f  0.0000000  0.000000000  0.00000000000  0.000000000000000
%f  0.0000000  0.000000000  0.00000000000  0.000000000000000
%i    0    0    0    0      0      0      0      0         0
%i    0    0    0    0      0      0      0      0         0
/*      NGA, ST. LOUIS,MO.                                  
/*   EPHEMERIS COMPUTED FROM 2 DAYS OF DATA                 
/*   EPOCHA v2.4 SMOOTHER                                   
/*   G1762 IERS2010 SATAF SATAPC                            
*  2016  6  2 12 35  0.00000000
P  1 -22540.441305 -14038.063240   2607.899457     22.335558                    
V  1  -1284.098617  -4004.249861 -31450.207791      0.012134                    
P  2   9512.977886  19794.906096  15647.821624    588.082820                    
V  2 -16954.069876  -8745.294967  21608.925665     -0.024311                    
P  3 -13678.830091  -9489.966502  20701.471724    -63.592754                    
V  3   3401.705510 -26070.623372  -9709.778144     -0.035483                    
P  5   4237.874842  24641.366129  -8728.437870   -115.995937                    
V  5  -4072.657441  10769.351309  28839.952003      0.029685                    
P  6  -6114.489287  14101.871159  21674.345745    199.032508                    
V  6 -22603.083186 -15628.532315   3797.817131      0.054236                    
P  7 -21061.631529  -1795.801376 -16190.315783    450.947008                    
V  7 -15589.325633 -13619.780031  21205.490372     -0.023298                    
P  8 -12634.099490 -10198.509341 -20977.550559    -37.472796                    
V  8  23939.248351 -11920.322198  -8563.889272     -0.014584                    
P  9 -24905.690956   6335.213733   6731.338437    140.884564                    
V  9   6573.415245  -6183.191651  30061.060039      0.072944                    
P 10  10883.659483 -20546.937134 -12755.343628    -36.514777                    
V 10    875.067698  16410.069852 -25711.200899     -0.085544                    
P 11 -22817.371073 -11820.114495  -7340.605081   -649.137906                    
V 11   9516.145593  -2102.499343 -28322.589997     -0.014249                    
P 12  11167.269601  13524.826712  19881.487068    381.570140                    
V 12  -4499.971748  25005.320628 -14177.966557      0.011184                    
P 13   3533.171026  14645.016001 -22003.560398    -22.016756                    
V 13 -26261.994440   8477.107454   1347.810318     -0.025639                    
P 14  16091.432878 -16106.875405  13808.083370    -17.177890                    
V 14  16840.045114  -3901.170262 -24797.410135     -0.020714                    
P 15  16061.493875   8118.250881 -19758.000876   -313.554391                    
V 15 -21349.562725  12743.138772 -11848.180771     -0.016395                    
P 16  -1453.974709 -24940.015614  -8522.117058    -13.489083                    
V 16   3766.173851 -10270.155634  30153.628588      0.025080                    
P 17 -19865.756290  14895.705700   9494.395853   -203.965312                    
V 17 -11588.703437   2336.338946 -29095.568282     -0.001223                    
P 18  15108.330821  -9130.048514 -19231.072906    522.197688                    
V 18    150.026768  25869.536276 -12087.320601      0.040763                    
P 19 -12823.530099  16329.493931  16529.960033   -525.612218                    
V 19 -20571.825769   5618.366853 -20837.747745      0.001056                    
P 20  13906.752218  12967.913161 -18678.086952    415.989469                    
V 20  -2132.685273  23528.262371  14908.426194      0.023110                    
P 21  19724.444704  -1867.200108 -17049.078844   -524.623234                    
V 21  17977.212793  14696.867712  18151.830020     -0.011706                    
P 22 -11027.069448 -18204.807613  16055.542253    329.045081                    
V 22   3920.551560 -19909.660698 -20311.885845     -0.084367                    
P 23 -22193.054213  -1718.028538  15008.825312   -176.418395                    
V 23  16046.919984  -9580.815491  22486.417623     -0.016170                    
P 24  21691.359358  15487.318177   -925.433428    -17.975512                    
V 24  -2598.279450   1874.164004 -31346.399713     -0.005603                    
P 25  14829.670123   -178.260226  21900.211896   -182.767554                    
V 25  -2501.315513  27957.725776   2097.625956     -0.070371                    
P 26   3949.958974 -26135.366471   2327.041716   -383.552174                    
V 26   2590.822490   3208.129067  31592.186799     -0.116999                    
P 27   -888.905269 -15692.611451 -21418.286128     99.107690                    
V 27  24876.233291 -10797.292394   7055.988610      0.041427                    
P 28 -12178.588367  19033.717991 -13293.942642    527.310173                    
V 28   1355.913350 -17938.055860 -25767.390095      0.026798                    
P 29  24579.617774  -2613.742456   9661.446954    656.958869                    
V 29 -10653.756639   6398.855308  28896.435943     -0.001592                    
P 30 -14831.203400   7075.657983 -20892.740039    130.062272                    
V 30 -20029.725214 -17400.573874   8227.532349      0.028774                    
P 31   3519.189589 -15588.690266  21252.072675    265.940388                    
V 31  21771.128216  15629.858504   8249.803852     -0.019072                    
P 32  18213.962382 -16368.093352  10275.195453    -16.614425                    
V 32  12891.831185  -3195.992957 -27983.545245     -0.071968                    
EOF
